NEXTSAT-1               
1 43811U 18099BF  26068.68342010  .00004546  00000+0  29857-3 0  9992
2 43811  97.4203 114.8574 0011320 323.9610  36.0854 15.08057555396886
STARLINK-4655           
1 53613U 22104AB  26068.76117122  .00002119  00000+0  15125-3 0  9995
2 53613  53.2181 233.9544 0001259  94.5450 265.5686 15.08826646195643
